MEAN_MOTION;ECCENTRICITY;INCLINATION;RA_OF_ASC_NODE;ARG_OF_PERICENTER;MEAN_ANOMALY;BSTAR;MEAN_MOTION_DOT;MEAN_MOTION_DDOT;TYPE
1.00271026;7.43E-5;0.0183;151.83;104.0177;134.1354;0;-2.99E-6;0;Intelsat
1.00275918;9.07E-5;0.019;156.8112;114.2173;274.4403;0;-3.0E-6;0;Intelsat
1.00273382;7.54E-5;0.0188;157.407;109.0344;330.8604;0;-3.01E-6;0;Intelsat
1.00272138;6.23E-5;0.0188;151.5127;113.0156;190.4657;0;-3.03E-6;0;Intelsat
1.00272944;6.8E-5;0.0264;156.9216;122.2318;273.7394;0;-3.04E-6;0;Intelsat
1.00269482;4.83E-5;0.0266;158.154;107.2613;26.5287;0;-3.05E-6;0;Intelsat
1.00269575;3.32E-5;0.027;157.3998;110.944;143.4359;0;-3.06E-6;0;Intelsat
1.00269511;5.85E-5;0.0274;158.0223;112.8269;214.9525;0;-3.07E-6;0;Intelsat
1.00268348;6.15E-5;0.0259;164.7919;95.0133;44.6899;0;-3.08E-6;0;Intelsat
1.00272922;5.64E-5;0.0257;171.6909;113.7251;277.6516;0;-3.1E-6;0;Intelsat
1.00268917;3.81E-5;0.0253;171.9808;82.1967;43.3957;0;-3.1E-6;0;Intelsat
1.00267763;4.44E-5;0.0252;170.4859;75.7968;79.89;0;-3.11E-6;0;Intelsat
1.00267729;4.17E-5;0.0253;170.0188;71.9472;187.9565;0;-3.11E-6;0;Intelsat
1.00267789;3.46E-5;0.0251;168.9203;67.9026;37.84;0;-3.11E-6;0;Intelsat
1.00270438;3.56E-5;0.019;157.8086;76.0602;174.5532;0;-3.11E-6;0;Intelsat
1.00270421;3.64E-5;0.0197;158.7491;76.689;197.289;0;-3.11E-6;0;Intelsat
1.00268262;2.99E-5;0.0234;175.3656;41.7065;63.1811;0;-3.1E-6;0;Intelsat
1.002696;2.37E-5;0.0233;173.649;48.4661;187.0667;0;-3.1E-6;0;Intelsat
1.00269699;2.3E-5;0.0232;173.698;47.0757;214.7837;0;-3.1E-6;0;Intelsat
1.00269866;2.94E-5;0.0214;178.2838;42.0017;192.1338;0;-3.09E-6;0;Intelsat
1.0026982;3.01E-5;0.0213;178.3133;40.9705;219.0597;0;-3.09E-6;0;Intelsat
1.00270028;3.58E-5;0.0202;183.0149;38.908;167.3739;0;-3.08E-6;0;Intelsat
1.00271063;4.54E-5;0.0162;196.9951;9.4714;81.9733;0;-3.07E-6;0;Intelsat
1.0026837;4.65E-5;0.0195;187.4846;9.5802;209.8097;0;-3.07E-6;0;Intelsat
1.00268399;4.66E-5;0.0196;187.4201;352.6961;263.8348;0;-3.06E-6;0;Intelsat
1.00268079;4.87E-5;0.0192;180.1863;9.4101;205.3322;0;-3.06E-6;0;Intelsat
1.00268027;4.99E-5;0.0194;179.9072;9.4351;257.4028;0;-3.06E-6;0;Intelsat
1.00267786;5.08E-5;0.0196;176.3965;8.7207;108.9555;0;-3.05E-6;0;Intelsat
1.00267635;5.25E-5;0.0201;173.383;9.2097;241.0571;0;-3.05E-6;0;Intelsat
1.00267573;5.32E-5;0.0202;173.4202;11.3077;284.5306;0;-3.05E-6;0;Intelsat
1.00267347;5.47E-5;0.0208;170.7376;7.3541;105.8747;0;-3.05E-6;0;Intelsat
1.00267201;5.62E-5;0.0211;168.5391;7.1967;224.7528;0;-3.05E-6;0;Intelsat
1.00271935;4.8E-5;0.0029;90.9365;77.2486;130.953;0;-3.04E-6;0;Intelsat
1.00273292;3.73E-5;0.0184;166.3819;358.1529;290.58;0;-3.03E-6;0;Intelsat
1.00270116;4.58E-5;0.0224;174.7227;355.0407;132.674;0;-3.03E-6;0;Intelsat
1.00270007;4.29E-5;0.0231;173.6643;20.5644;267.3211;0;-3.02E-6;0;Intelsat
1.00269943;4.3E-5;0.0231;173.7144;21.5339;301.5331;0;-3.02E-6;0;Intelsat
1.00269899;4.61E-5;0.0229;182.7759;4.1257;254.7253;0;-3.01E-6;0;Intelsat
1.00270566;4.64E-5;0.0233;192.63;358.2858;220.8042;0;-2.99E-6;0;Intelsat
1.00269871;4.96E-5;0.0233;192.6794;7.6653;263.1796;0;-2.98E-6;0;Intelsat
1.00272348;6.05E-5;0.0176;205.7798;6.5259;98.5346;0;-2.97E-6;0;Intelsat
1.00268121;6.58E-5;0.0235;201.4569;7.3471;231.6226;0;-2.96E-6;0;Intelsat
1.00267758;6.95E-5;0.023;201.5766;17.4127;94.6477;0;-2.95E-6;0;Intelsat
1.00267593;6.99E-5;0.0226;201.432;17.984;249.7105;0;-2.93E-6;0;Intelsat
1.0026747;7.29E-5;0.0221;200.8952;24.835;64.8124;0;-2.93E-6;0;Intelsat
1.00267388;8.12E-5;0.0218;200.1761;32.9029;187.0411;0;-2.91E-6;0;Intelsat
1.0026896;7.4E-5;0.021;199.482;37.9514;286.3267;0;-2.91E-6;0;Intelsat
1.00268845;7.53E-5;0.0204;199.1355;41.0162;79.1095;0;-2.9E-6;0;Intelsat
1.00268745;7.68E-5;0.0202;198.2696;42.0891;181.6111;0;-2.89E-6;0;Intelsat
1.00270681;7.36E-5;0.0206;205.4041;45.6186;275.5539;0;-2.89E-6;0;Intelsat
1.00270303;7.04E-5;0.0203;207.0473;45.035;41.6784;0;-2.88E-6;0;Intelsat
1.0027022;7.25E-5;0.0198;205.335;47.1607;172.0951;0;-2.88E-6;0;Intelsat
1.00271363;8.41E-5;0.017;227.7659;41.6536;157.0408;0;-2.87E-6;0;Intelsat
1.00271685;8.11E-5;0.0179;228.0951;40.4909;214.1494;0;-2.87E-6;0;Intelsat
1.00270752;8.37E-5;0.0186;218.8365;47.5799;164.9178;0;-2.88E-6;0;Intelsat
1.00272417;8.9E-5;0.0056;287.2884;340.0704;196.9875;0;-2.88E-6;0;Intelsat
1.00272324;8.95E-5;0.0063;281.4606;346.2082;215.5045;0;-2.88E-6;0;Intelsat
1.00272259;8.26E-5;0.019;233.1455;26.194;45.221;0;-2.88E-6;0;Intelsat
1.00271227;8.82E-5;0.0197;232.0413;25.2148;212.9185;0;-2.89E-6;0;Intelsat
1.00268748;9.01E-5;0.0174;219.9686;43.9088;299.8446;0;-2.9E-6;0;Intelsat
1.00270685;8.85E-5;0.0056;284.216;340.5329;27.7337;0;-2.9E-6;0;Intelsat
1.00268409;8.61E-5;0.0167;214.9065;50.6785;145.4281;0;-2.91E-6;0;Intelsat
1.00268085;8.17E-5;0.0163;209.8847;57.2639;28.1012;0;-2.93E-6;0;Intelsat
1.00267777;6.29E-5;0.0162;205.2307;55.0366;195.1963;0;-2.94E-6;0;Intelsat
1.00267463;5.6E-5;0.0161;200.6893;59.729;52.539;0;-2.97E-6;0;Intelsat
1.0026724;5.37E-5;0.0165;196.8988;64.9956;197.8004;0;-2.98E-6;0;Intelsat
1.00268567;5.37E-5;0.0176;205.732;69.8059;303.2482;0;-2.99E-6;0;Intelsat
1.00268896;4.68E-5;0.018;204.6815;74.5872;166.0553;0;-3.01E-6;0;Intelsat
1.00268723;4.72E-5;0.018;204.7265;73.8024;192.7214;0;-3.01E-6;0;Intelsat
1.00269161;6.21E-5;0.0191;214.4906;63.2918;276.671;0;-3.02E-6;0;Intelsat
1.00268996;4.4E-5;0.0193;213.0203;72.1486;137.0687;0;-3.04E-6;0;Intelsat
1.00268886;5.41E-5;0.0194;213.0042;74.5641;160.5862;0;-3.04E-6;0;Intelsat
1.00270954;5.99E-5;0.0007;172.1478;110.8051;38.4098;0;-3.06E-6;0;Intelsat
1.00268311;5.55E-5;0.0209;221.1955;63.5608;192.1113;0;-3.06E-6;0;Intelsat
1.00267708;5.34E-5;0.0226;229.651;51.2413;20.3896;0;-3.07E-6;0;Intelsat
1.00266843;4.75E-5;0.0222;230.3131;42.5029;180.9182;0;-3.07E-6;0;Intelsat
1.00266626;3.48E-5;0.0206;230.713;34.1692;191.632;0;-3.06E-6;0;Intelsat
1.0026649;3.08E-5;0.0189;231.2309;29.0589;69.4713;0;-3.06E-6;0;Intelsat
1.00269184;1.27E-5;0.0164;231.3401;259.8011;201.3966;0;-3.05E-6;0;Intelsat
1.00270637;2.74E-5;0.0172;238.5998;226.866;194.1859;0;-3.04E-6;0;Intelsat
1.00268928;2.52E-5;0.0175;243.163;193.689;47.8931;0;-3.03E-6;0;Intelsat
1.00271004;1.76E-5;0.0174;244.7199;231.349;92.5335;0;-3.03E-6;0;Intelsat
1.00270951;1.9E-5;0.0156;246.1357;239.6293;4.5673;0;-3.02E-6;0;Intelsat
1.00271761;5.7E-6;0.0178;249.3458;243.8319;106.4348;0;-3.02E-6;0;Intelsat
1.00271201;1.7E-5;0.0165;249.5388;242.6567;312.4488;0;-3.01E-6;0;Intelsat
1.00274457;2.93E-5;0.0184;254.0251;46.8333;266.9097;0;-3.01E-6;0;Intelsat
1.00272825;1.79E-5;0.0175;255.6454;25.9573;36.2581;0;-3.01E-6;0;Intelsat
1.00271966;2.1E-5;0.0182;255.8845;10.7171;180.8461;0;-3.01E-6;0;Intelsat
1.00271999;2.03E-5;0.0183;255.7506;10.1138;207.5004;0;-3.0E-6;0;Intelsat
1.00271774;1.67E-5;0.019;256.9044;351.2369;72.5279;0;-3.0E-6;0;Intelsat
1.00271728;1.68E-5;0.0189;256.8775;321.0332;232.3247;0;-3.0E-6;0;Intelsat
1.00271707;1.76E-5;0.0184;256.8395;315.6244;263.6885;0;-3.0E-6;0;Intelsat
1.00268616;2.64E-5;0.0137;247.5904;295.4814;140.4024;0;-2.99E-6;0;Intelsat
1.00268406;2.97E-5;0.0131;244.3714;299.7124;294.865;0;-2.98E-6;0;Intelsat
1.00268263;3.14E-5;0.0124;242.0099;301.0457;39.5485;0;-2.98E-6;0;Intelsat
1.00267978;3.3E-5;0.0119;237.8261;310.5095;267.8698;0;-2.98E-6;0;Intelsat
1.00267938;3.33E-5;0.0119;237.8974;311.5665;292.308;0;-2.97E-6;0;Intelsat
1.00268946;2.68E-5;0.0149;244.9996;313.5442;68.6205;0;-2.97E-6;0;Intelsat
1.00274109;1.57E-5;0.0188;259.1667;0.2127;347.1281;0;-2.95E-6;0;Intelsat
1.00273214;2.23E-5;0.0187;256.266;331.7919;207.4757;0;-2.94E-6;0;Intelsat
1.00269352;3.16E-5;0.017;249.5038;334.1212;282.5853;0;-2.94E-6;0;Intelsat
1.00273021;3.2E-5;0.0192;260.6212;358.8071;75.2761;0;-2.92E-6;0;Intelsat
1.00272709;3.56E-5;0.0202;262.7874;359.5168;201.9528;0;-2.91E-6;0;Intelsat
1.00271094;4.81E-5;0.019;265.5545;348.017;83.9335;0;-2.9E-6;0;Intelsat
1.00271056;4.79E-5;0.0197;267.2929;345.0299;242.1671;0;-2.88E-6;0;Intelsat
1.00270806;5.11E-5;0.021;268.0751;345.4541;86.7098;0;-2.87E-6;0;Intelsat
1.00267333;6.74E-5;0.0211;263.3925;353.72;186.7868;0;-2.86E-6;0;Intelsat
1.00267285;6.82E-5;0.0208;264.5319;353.8822;237.3158;0;-2.86E-6;0;Intelsat
1.00267108;7.16E-5;0.0197;266.6778;354.4096;81.9425;0;-2.84E-6;0;Intelsat
1.00267031;7.28E-5;0.0195;266.6093;354.4768;159.6653;0;-2.84E-6;0;Intelsat
1.00267015;7.29E-5;0.0194;267.2649;354.1478;185.2865;0;-2.84E-6;0;Intelsat
1.00268814;5.76E-5;0.0184;268.6898;353.2228;299.4728;0;-2.83E-6;0;Intelsat
1.00268719;6.09E-5;0.0176;271.584;352.8279;81.3644;0;-2.82E-6;0;Intelsat
1.00268659;6.22E-5;0.0174;272.1841;352.4978;186.1332;0;-2.82E-6;0;Intelsat
1.00272199;6.43E-5;0.0199;274.2771;1.1662;280.4896;0;-2.82E-6;0;Intelsat
1.00269827;5.31E-5;0.0195;277.1613;352.1585;60.399;0;-2.81E-6;0;Intelsat
1.00269931;6.61E-5;0.0188;277.3292;2.0053;164.4492;0;-2.81E-6;0;Intelsat
1.00271025;5.91E-5;0.0201;277.8264;351.9286;339.8456;0;-2.81E-6;0;Intelsat
1.00273325;5.65E-5;0.0194;279.6006;2.9937;42.9435;0;-2.81E-6;0;Intelsat
1.0027262;6.18E-5;0.0198;281.5219;0.3856;216.1514;0;-2.8E-6;0;Intelsat
1.00272844;6.99E-5;0.0175;284.0157;2.5112;171.3937;0;-2.82E-6;0;Intelsat
1.00270882;7.72E-5;0.0153;283.5444;357.9515;178.8002;0;-2.83E-6;0;Intelsat
1.00270351;7.36E-5;0.0168;283.9796;358.3777;181.1671;0;-2.86E-6;0;Intelsat
1.00270018;6.98E-5;0.0172;283.3384;0.7912;57.3517;0;-2.88E-6;0;Intelsat
1.00272181;6.67E-5;0.0163;285.6288;18.6026;294.4485;0;-2.94E-6;0;Intelsat
1.00272032;6.36E-5;0.0171;284.6758;20.559;343.3061;0;-2.94E-6;0;Intelsat
1.00269917;4.83E-5;0.0143;285.7787;34.8977;151.217;0;-2.96E-6;0;Intelsat
1.00271728;6.69E-5;0.0176;283.1574;25.193;25.5675;0;-2.98E-6;0;Intelsat
1.00270609;7.8E-5;0.0179;282.8015;39.0341;190.6585;0;-2.98E-6;0;Intelsat
1.00270819;7.73E-5;0.0175;286.499;38.0387;152.9744;0;-3.0E-6;0;Intelsat
1.00270432;7.91E-5;0.0175;287.6671;39.6705;191.633;0;-2.99E-6;0;Intelsat
1.00271847;7.59E-5;0.004;309.2621;6.7892;8.9554;0;-3.0E-6;0;Intelsat
1.00271532;5.71E-5;0.0181;288.5153;32.6977;29.5216;0;-3.0E-6;0;Intelsat
1.00271003;5.88E-5;0.019;290.7808;32.2236;255.4895;0;-3.0E-6;0;Intelsat
1.00267926;2.26E-5;0.0212;295.56;53.6737;133.8607;0;-2.99E-6;0;Intelsat
